{
  "type": "FeatureCollection",
  "features": [
    {
      "type": "Feature",
      "properties": {
        "norad_id": 30849,
        "name": "FENGYUN 1C DEB",
        "group": "fengyun-1c-debris",
        "lat": 80.93613996445568,
        "lon": -33.90630069194838,
        "alt_km": 828.8032811307039,
        "timestamp": "2025-12-19T04:59:48.585199+00:00",
        "meta_object_name": "FENGYUN 1C DEB",
        "meta_object_id": "1999-025AWK",
        "meta_epoch": "2025-12-18T15:45:28.364256",
        "meta_mean_motion": 14.18887903,
        "meta_eccentricity": 0.00479147,
        "meta_inclination": 99.0479,
        "meta_ra_of_asc_node": 52.7767,
        "meta_arg_of_pericenter": 348.9101,
        "meta_mean_anomaly": 163.9997,
        "meta_ephemeris_type": 0,
        "meta_classification_type": "U",
        "meta_norad_cat_id": 30849,
        "meta_element_set_no": 999,
        "meta_rev_at_epoch": 96456,
        "meta_bstar": 0.00103142,
        "meta_mean_motion_dot": 2.126e-05,
        "meta_mean_motion_ddot": 0,
        "tle_line1": "1 30849U 99025AWK 25352.65657829  .00002126  00000+0  10314-2 0  9995",
        "tle_line2": "2 30849  99.0479  52.7767 0047914 348.9101 163.9997 14.18887903964562"
      },
      "geometry": {
        "type": "Point",
        "coordinates": [
          -33.90630069194838,
          80.93613996445568
        ]
      }
    },
    {
      "type": "Feature",
      "properties": {
        "norad_id": 30850,
        "name": "FENGYUN 1C DEB",
        "group": "fengyun-1c-debris",
        "lat": -39.17641230531777,
        "lon": -134.74340413153342,
        "alt_km": 905.5437204968366,
        "timestamp": "2025-12-19T04:59:48.585209+00:00",
        "meta_object_name": "FENGYUN 1C DEB",
        "meta_object_id": "1999-025AWL",
        "meta_epoch": "2025-12-18T14:11:30.191424",
        "meta_mean_motion": 14.16326666,
        "meta_eccentricity": 0.01091802,
        "meta_inclination": 98.3952,
        "meta_ra_of_asc_node": 217.763,
        "meta_arg_of_pericenter": 180.7029,
        "meta_mean_anomaly": 235.3724,
        "meta_ephemeris_type": 0,
        "meta_classification_type": "U",
        "meta_norad_cat_id": 30850,
        "meta_element_set_no": 999,
        "meta_rev_at_epoch": 95881,
        "meta_bstar": 0.0013607983,
        "meta_mean_motion_dot": 2.822e-05,
        "meta_mean_motion_ddot": 0,
        "tle_line1": "1 30850U 99025AWL 25352.59132166  .00002822  00000+0  13608-2 0  9994",
        "tle_line2": "2 30850  98.3952 217.7630 0109180 180.7029 235.3724 14.16326666958814"
      },
      "geometry": {
        "type": "Point",
        "coordinates": [
          -134.74340413153342,
          -39.17641230531777
        ]
      }
    },
    {
      "type": "Feature",
      "properties": {
        "norad_id": 30852,
        "name": "FENGYUN 1C DEB",
        "group": "fengyun-1c-debris",
        "lat": 15.679178287935356,
        "lon": -166.75409994039725,
        "alt_km": 833.9321823886503,
        "timestamp": "2025-12-19T04:59:48.585219+00:00",
        "meta_object_name": "FENGYUN 1C DEB",
        "meta_object_id": "1999-025AWN",
        "meta_epoch": "2025-12-18T00:58:25.410432",
        "meta_mean_motion": 14.10293857,
        "meta_eccentricity": 0.00560315,
        "meta_inclination": 98.7334,
        "meta_ra_of_asc_node": 9.6391,
        "meta_arg_of_pericenter": 219.3702,
        "meta_mean_anomaly": 140.3391,
        "meta_ephemeris_type": 0,
        "meta_classification_type": "U",
        "meta_norad_cat_id": 30852,
        "meta_element_set_no": 999,
        "meta_rev_at_epoch": 96457,
        "meta_bstar": 0.00042747986,
        "meta_mean_motion_dot": 7.26e-06,
        "meta_mean_motion_ddot": 0,
        "tle_line1": "1 30852U 99025AWN 25352.04057188  .00000726  00000+0  42748-3 0  9995",
        "tle_line2": "2 30852  98.7334   9.6391 0056031 219.3702 140.3391 14.10293857964573"
      },
      "geometry": {
        "type": "Point",
        "coordinates": [
          -166.75409994039725,
          15.679178287935356
        ]
      }
    },
    {
      "type": "Feature",
      "properties": {
        "norad_id": 30856,
        "name": "FENGYUN 1C DEB",
        "group": "fengyun-1c-debris",
        "lat": 70.8591048174868,
        "lon": 153.24528827311713,
        "alt_km": 782.4636450548751,
        "timestamp": "2025-12-19T04:59:48.585229+00:00",
        "meta_object_name": "FENGYUN 1C DEB",
        "meta_object_id": "1999-025AWS",
        "meta_epoch": "2025-12-17T11:17:31.756416",
        "meta_mean_motion": 14.4633817,
        "meta_eccentricity": 0.00876084,
        "meta_inclination": 98.1983,
        "meta_ra_of_asc_node": 176.1067,
        "meta_arg_of_pericenter": 224.5578,
        "meta_mean_anomaly": 165.9609,
        "meta_ephemeris_type": 0,
        "meta_classification_type": "U",
        "meta_norad_cat_id": 30856,
        "meta_element_set_no": 999,
        "meta_rev_at_epoch": 96594,
        "meta_bstar": 0.0038538132,
        "meta_mean_motion_dot": 0.00014481,
        "meta_mean_motion_ddot": 0,
        "tle_line1": "1 30856U 99025AWS 25351.47050644  .00014481  00000+0  38538-2 0  9999",
        "tle_line2": "2 30856  98.1983 176.1067 0087608 224.5578 165.9609 14.46338170965948"
      },
      "geometry": {
        "type": "Point",
        "coordinates": [
          153.24528827311713,
          70.8591048174868
        ]
      }
    },
    {
      "type": "Feature",
      "properties": {
        "norad_id": 30857,
        "name": "FENGYUN 1C DEB",
        "group": "fengyun-1c-debris",
        "lat": 31.780460201823587,
        "lon": -22.212297964278285,
        "alt_km": 730.7387703603927,
        "timestamp": "2025-12-19T04:59:48.585239+00:00",
        "meta_object_name": "FENGYUN 1C DEB",
        "meta_object_id": "1999-025AWT",
        "meta_epoch": "2025-12-10T22:20:28.597056",
        "meta_mean_motion": 14.51403304,
        "meta_eccentricity": 0.0041899,
        "meta_inclination": 98.9745,
        "meta_ra_of_asc_node": 334.5727,
        "meta_arg_of_pericenter": 300.5616,
        "meta_mean_anomaly": 59.1445,
        "meta_ephemeris_type": 0,
        "meta_classification_type": "U",
        "meta_norad_cat_id": 30857,
        "meta_element_set_no": 999,
        "meta_rev_at_epoch": 96697,
        "meta_bstar": 0.0076916,
        "meta_mean_motion_dot": 0.0003112,
        "meta_mean_motion_ddot": 0,
        "tle_line1": "1 30857U 99025AWT 25344.93088654  .00031120  00000+0  76916-2 0  9996",
        "tle_line2": "2 30857  98.9745 334.5727 0041899 300.5616  59.1445 14.51403304966970"
      },
      "geometry": {
        "type": "Point",
        "coordinates": [
          -22.212297964278285,
          31.780460201823587
        ]
      }
    },
    {
      "type": "Feature",
      "properties": {
        "norad_id": 30858,
        "name": "FENGYUN 1C DEB",
        "group": "fengyun-1c-debris",
        "lat": -36.35394078568655,
        "lon": 57.32476990842681,
        "alt_km": 852.8760022437118,
        "timestamp": "2025-12-19T04:59:48.585250+00:00",
        "meta_object_name": "FENGYUN 1C DEB",
        "meta_object_id": "1999-025AWU",
        "meta_epoch": "2025-12-18T09:27:55.505952",
        "meta_mean_motion": 14.17789633,
        "meta_eccentricity": 0.00306968,
        "meta_inclination": 98.7985,
        "meta_ra_of_asc_node": 49.9731,
        "meta_arg_of_pericenter": 94.1626,
        "meta_mean_anomaly": 37.9672,
        "meta_ephemeris_type": 0,
        "meta_classification_type": "U",
        "meta_norad_cat_id": 30858,
        "meta_element_set_no": 999,
        "meta_rev_at_epoch": 97060,
        "meta_bstar": 0.00031848277,
        "meta_mean_motion_dot": 6.09e-06,
        "meta_mean_motion_ddot": 0,
        "tle_line1": "1 30858U 99025AWU 25352.39439243  .00000609  00000+0  31848-3 0  9994",
        "tle_line2": "2 30858  98.7985  49.9731 0030696  94.1626  37.9672 14.17789633970602"
      },
      "geometry": {
        "type": "Point",
        "coordinates": [
          57.32476990842681,
          -36.35394078568655
        ]
      }
    },
    {
      "type": "Feature",
      "properties": {
        "norad_id": 30859,
        "name": "FENGYUN 1C DEB",
        "group": "fengyun-1c-debris",
        "lat": 49.8946650115029,
        "lon": 32.94878552842211,
        "alt_km": 706.9696562972122,
        "timestamp": "2025-12-19T04:59:48.585260+00:00",
        "meta_object_name": "FENGYUN 1C DEB",
        "meta_object_id": "1999-025AWV",
        "meta_epoch": "2025-12-18T20:28:46.635456",
        "meta_mean_motion": 14.49184089,
        "meta_eccentricity": 0.00307706,
        "meta_inclination": 98.9217,
        "meta_ra_of_asc_node": 43.323,
        "meta_arg_of_pericenter": 11.7153,
        "meta_mean_anomaly": 348.4748,
        "meta_ephemeris_type": 0,
        "meta_classification_type": "U",
        "meta_norad_cat_id": 30859,
        "meta_element_set_no": 999,
        "meta_rev_at_epoch": 97123,
        "meta_bstar": 0.0020074535,
        "meta_mean_motion_dot": 7.645e-05,
        "meta_mean_motion_ddot": 0,
        "tle_line1": "1 30859U 99025AWV 25352.85331754  .00007645  00000+0  20075-2 0  9990",
        "tle_line2": "2 30859  98.9217  43.3230 0030770  11.7153 348.4748 14.49184089971231"
      },
      "geometry": {
        "type": "Point",
        "coordinates": [
          32.94878552842211,
          49.8946650115029
        ]
      }
    }
  ]
}